0 COSMOS 2251 DEB
1 35711U 93036AQG 13285.63487121  .00000714  00000-0  16045-3 0  3545
2 35711 074.0479 034.0336 0096779 194.6407 165.1982 14.55587389231371
0 COSMOS 2251 DEB
1 35711U 93036AQG 13290.58338226  .00000825  00000-0  18431-3 0  3551
2 35711 074.0468 024.6655 0096751 184.3114 175.8412 14.55598739232096
0 COSMOS 2251 DEB
1 35711U 93036AQG 13291.61429360  .00000914  00000-0  20385-3 0  3567
2 35711 074.0452 022.7146 0095595 182.2567 177.9188 14.55603950232249
0 COSMOS 2251 DEB
1 35711U 93036AQG 13292.57646929  .00000957  00000-0  21254-3 0  3579
2 35711 074.0484 020.8967 0097343 179.5920 180.5580 14.55607455232384
0 COSMOS 2251 DEB
1 35711U 93036AQG 13295.53178351  .00001045  00000-0  23174-3 0  3580
2 35711 074.0489 015.2923 0096298 173.5086 186.7774 14.55616175232814
